STARLINK-2164
1 17750C 21017AE  21326.12397579  .00007323  00000-0  49070-3 0  3263
2 17750  53.0564  43.1865 0001282  74.2604 163.3066 15.06388121    12
